ARIANE 5 R/B            
1 28499U 04049H   25302.92101762  .00001236  00000+0  14315-3 0  9997
2 28499  98.2507 101.6426 0085802  55.3653 305.5613 14.84879352126389
CZ-2D R/B               
1 28738U 05024B   25302.93504074  .00033928  00000+0  59896-3 0  9997
2 28738  97.3685 309.3201 0007648 126.7178 233.4777 15.50272558119467
ALOS (DAICHI)           
1 28931U 06002A   25302.84114089  .00002423  00000+0  41914-3 0  9990
2 28931  98.1018 254.6618 0001701  54.4487 305.6877 14.69265593 54268
H-2A R/B                
1 28932U 06002B   25302.89928482  .00011131  00000+0  60450-3 0  9998
2 28932  98.2286  74.1203 0055193 326.5405  33.2341 15.13395756 74637
RESURS-DK 1             
1 29228U 06021A   25302.90189509  .00003918  00000+0  23499-3 0  9995
2 29228  69.9334 215.0944 0007067 295.1256  64.9176 15.11800816 67753
CZ-4B R/B               
1 29507U 06046C   25302.86287639  .00007220  00000+0  38211-3 0  9998
2 29507  97.5807 343.1229 0034499   3.2744 356.8707 15.15228828 40220
CZ-2C R/B               
1 31114U 07010B   25302.89694670  .00000200  00000+0  11138-3 0  9997
2 31114  98.3948  57.7611 0058164 315.3018  44.3479 14.20183586961156
COSMO-SKYMED 1          
1 31598U 07023A   25302.96383919  .00002886  00000+0  26735-3 0  9997
2 31598  97.8869 128.0879 0001133  79.9870 280.1479 14.95293810995352
COSMOS 2428             
1 31792U 07029A   25302.84366283 -.00000217  00000+0 -91007-4 0  9994
2 31792  70.9364 118.0361 0001745 117.3905 242.7393 14.12893401945614
SL-16 R/B               
1 31793U 07029B   25302.85478535 -.00000074  00000+0 -13559-4 0  9997
2 31793  70.9739  87.4025 0002484 261.6255 250.3327 14.14803743946861
KORONAS-FOTON           
1 33504U 09003A   25302.77863825  .00016572  00000+0  41703-3 0  9993
2 33504  82.4323  51.5971 0010627 266.8119  93.1911 15.39741060925574
CZ-2C R/B               
1 37731U 11030B   25302.87336733  .00002258  00000+0  29335-3 0  9999
2 37731  97.8338 257.9767 0054538  56.9856   0.8337 14.80663601770738
