CCSDS_OMM_VERS = 2.0
CREATION_DATE  = 
ORIGINATOR     = 

OBJECT_NAME    = ARIANE 5 R/B
OBJECT_ID      = 2004-049H
CENTER_NAME    = EARTH
REF_FRAME      = TEME
TIME_SYSTEM    = UTC
MEAN_ELEMENT_THEORY = SGP/SGP4

EPOCH          = 2025-10-29T22:06:15.922368
MEAN_MOTION    = 14.84879352
ECCENTRICITY   = .00858022
INCLINATION    = 98.2507
RA_OF_ASC_NODE = 101.6426
ARG_OF_PERICENTER = 55.3653
MEAN_ANOMALY   = 305.5613

EPHEMERIS_TYPE = 0
CLASSIFICATION_TYPE = U
NORAD_CAT_ID   = 28499
ELEMENT_SET_NO = 999
REV_AT_EPOCH   = 12638
BSTAR          = .14315384E-3
MEAN_MOTION_DOT = .1236E-4
MEAN_MOTION_DDOT = 0

CCSDS_OMM_VERS = 2.0
CREATION_DATE  = 
ORIGINATOR     = 

OBJECT_NAME    = CZ-2D R/B
OBJECT_ID      = 2005-024B
CENTER_NAME    = EARTH
REF_FRAME      = TEME
TIME_SYSTEM    = UTC
MEAN_ELEMENT_THEORY = SGP/SGP4

EPOCH          = 2025-10-29T22:26:27.519936
MEAN_MOTION    = 15.50272558
ECCENTRICITY   = .00076483
INCLINATION    = 97.3685
RA_OF_ASC_NODE = 309.3201
ARG_OF_PERICENTER = 126.7178
MEAN_ANOMALY   = 233.4777

EPHEMERIS_TYPE = 0
CLASSIFICATION_TYPE = U
NORAD_CAT_ID   = 28738
ELEMENT_SET_NO = 999
REV_AT_EPOCH   = 11946
BSTAR          = .59895682E-3
MEAN_MOTION_DOT = .33928E-3
MEAN_MOTION_DDOT = 0

CCSDS_OMM_VERS = 2.0
CREATION_DATE  = 
ORIGINATOR     = 

OBJECT_NAME    = ALOS (DAICHI)
OBJECT_ID      = 2006-002A
CENTER_NAME    = EARTH
REF_FRAME      = TEME
TIME_SYSTEM    = UTC
MEAN_ELEMENT_THEORY = SGP/SGP4

EPOCH          = 2025-10-29T20:11:14.572896
MEAN_MOTION    = 14.69265593
ECCENTRICITY   = .00017013
INCLINATION    = 98.1018
RA_OF_ASC_NODE = 254.6618
ARG_OF_PERICENTER = 54.4487
MEAN_ANOMALY   = 305.6877

EPHEMERIS_TYPE = 0
CLASSIFICATION_TYPE = U
NORAD_CAT_ID   = 28931
ELEMENT_SET_NO = 999
REV_AT_EPOCH   = 5426
BSTAR          = .4191372E-3
MEAN_MOTION_DOT = .2423E-4
MEAN_MOTION_DDOT = 0

CCSDS_OMM_VERS = 2.0
CREATION_DATE  = 
ORIGINATOR     = 

OBJECT_NAME    = H-2A R/B
OBJECT_ID      = 2006-002B
CENTER_NAME    = EARTH
REF_FRAME      = TEME
TIME_SYSTEM    = UTC
MEAN_ELEMENT_THEORY = SGP/SGP4

EPOCH          = 2025-10-29T21:34:58.208448
MEAN_MOTION    = 15.13395756
ECCENTRICITY   = .00551936
INCLINATION    = 98.2286
RA_OF_ASC_NODE = 74.1203
ARG_OF_PERICENTER = 326.5405
MEAN_ANOMALY   = 33.2341

EPHEMERIS_TYPE = 0
CLASSIFICATION_TYPE = U
NORAD_CAT_ID   = 28932
ELEMENT_SET_NO = 999
REV_AT_EPOCH   = 7463
BSTAR          = .60450216E-3
MEAN_MOTION_DOT = .11131E-3
MEAN_MOTION_DDOT = 0

CCSDS_OMM_VERS = 2.0
CREATION_DATE  = 
ORIGINATOR     = 

OBJECT_NAME    = RESURS-DK 1
OBJECT_ID      = 2006-021A
CENTER_NAME    = EARTH
REF_FRAME      = TEME
TIME_SYSTEM    = UTC
MEAN_ELEMENT_THEORY = SGP/SGP4

EPOCH          = 2025-10-29T21:38:43.735776
MEAN_MOTION    = 15.11800816
ECCENTRICITY   = .00070678
INCLINATION    = 69.9334
RA_OF_ASC_NODE = 215.0944
ARG_OF_PERICENTER = 295.1256
MEAN_ANOMALY   = 64.9176

EPHEMERIS_TYPE = 0
CLASSIFICATION_TYPE = U
NORAD_CAT_ID   = 29228
ELEMENT_SET_NO = 999
REV_AT_EPOCH   = 6775
BSTAR          = .23498967E-3
MEAN_MOTION_DOT = .3918E-4
MEAN_MOTION_DDOT = 0

CCSDS_OMM_VERS = 2.0
CREATION_DATE  = 
ORIGINATOR     = 

OBJECT_NAME    = CZ-4B R/B
OBJECT_ID      = 2006-046C
CENTER_NAME    = EARTH
REF_FRAME      = TEME
TIME_SYSTEM    = UTC
MEAN_ELEMENT_THEORY = SGP/SGP4

EPOCH          = 2025-10-29T20:42:32.520096
MEAN_MOTION    = 15.15228828
ECCENTRICITY   = .00344993
INCLINATION    = 97.5807
RA_OF_ASC_NODE = 343.1229
ARG_OF_PERICENTER = 3.2744
MEAN_ANOMALY   = 356.8707

EPHEMERIS_TYPE = 0
CLASSIFICATION_TYPE = U
NORAD_CAT_ID   = 29507
ELEMENT_SET_NO = 999
REV_AT_EPOCH   = 4022
BSTAR          = .38210587E-3
MEAN_MOTION_DOT = .722E-4
MEAN_MOTION_DDOT = 0

CCSDS_OMM_VERS = 2.0
CREATION_DATE  = 
ORIGINATOR     = 

OBJECT_NAME    = CZ-2C R/B
OBJECT_ID      = 2007-010B
CENTER_NAME    = EARTH
REF_FRAME      = TEME
TIME_SYSTEM    = UTC
MEAN_ELEMENT_THEORY = SGP/SGP4

EPOCH          = 2025-10-29T21:31:36.194880
MEAN_MOTION    = 14.20183586
ECCENTRICITY   = .00581648
INCLINATION    = 98.3948
RA_OF_ASC_NODE = 57.7611
ARG_OF_PERICENTER = 315.3018
MEAN_ANOMALY   = 44.3479

EPHEMERIS_TYPE = 0
CLASSIFICATION_TYPE = U
NORAD_CAT_ID   = 31114
ELEMENT_SET_NO = 999
REV_AT_EPOCH   = 96115
BSTAR          = .11138428E-3
MEAN_MOTION_DOT = .2E-5
MEAN_MOTION_DDOT = 0

CCSDS_OMM_VERS = 2.0
CREATION_DATE  = 
ORIGINATOR     = 

OBJECT_NAME    = COSMO-SKYMED 1
OBJECT_ID      = 2007-023A
CENTER_NAME    = EARTH
REF_FRAME      = TEME
TIME_SYSTEM    = UTC
MEAN_ELEMENT_THEORY = SGP/SGP4

EPOCH          = 2025-10-29T23:07:55.706016
MEAN_MOTION    = 14.95293810
ECCENTRICITY   = .00011336
INCLINATION    = 97.8869
RA_OF_ASC_NODE = 128.0879
ARG_OF_PERICENTER = 79.9870
MEAN_ANOMALY   = 280.1479

EPHEMERIS_TYPE = 0
CLASSIFICATION_TYPE = U
NORAD_CAT_ID   = 31598
ELEMENT_SET_NO = 999
REV_AT_EPOCH   = 99535
BSTAR          = .26734857E-3
MEAN_MOTION_DOT = .2886E-4
MEAN_MOTION_DDOT = 0

CCSDS_OMM_VERS = 2.0
CREATION_DATE  = 
ORIGINATOR     = 

OBJECT_NAME    = COSMOS 2428
OBJECT_ID      = 2007-029A
CENTER_NAME    = EARTH
REF_FRAME      = TEME
TIME_SYSTEM    = UTC
MEAN_ELEMENT_THEORY = SGP/SGP4

EPOCH          = 2025-10-29T20:14:52.468512
MEAN_MOTION    = 14.12893401
ECCENTRICITY   = .00017458
INCLINATION    = 70.9364
RA_OF_ASC_NODE = 118.0361
ARG_OF_PERICENTER = 117.3905
MEAN_ANOMALY   = 242.7393

EPHEMERIS_TYPE = 0
CLASSIFICATION_TYPE = U
NORAD_CAT_ID   = 31792
ELEMENT_SET_NO = 999
REV_AT_EPOCH   = 94561
BSTAR          = -.91007239E-4
MEAN_MOTION_DOT = -.217E-5
MEAN_MOTION_DDOT = 0

CCSDS_OMM_VERS = 2.0
CREATION_DATE  = 
ORIGINATOR     = 

OBJECT_NAME    = SL-16 R/B
OBJECT_ID      = 2007-029B
CENTER_NAME    = EARTH
REF_FRAME      = TEME
TIME_SYSTEM    = UTC
MEAN_ELEMENT_THEORY = SGP/SGP4

EPOCH          = 2025-10-29T20:30:53.454240
MEAN_MOTION    = 14.14803743
ECCENTRICITY   = .00024844
INCLINATION    = 70.9739
RA_OF_ASC_NODE = 87.4025
ARG_OF_PERICENTER = 261.6255
MEAN_ANOMALY   = 250.3327

EPHEMERIS_TYPE = 0
CLASSIFICATION_TYPE = U
NORAD_CAT_ID   = 31793
ELEMENT_SET_NO = 999
REV_AT_EPOCH   = 94686
BSTAR          = -.13558647E-4
MEAN_MOTION_DOT = -.74E-6
MEAN_MOTION_DDOT = 0

CCSDS_OMM_VERS = 2.0
CREATION_DATE  = 
ORIGINATOR     = 

OBJECT_NAME    = KORONAS-FOTON
OBJECT_ID      = 2009-003A
CENTER_NAME    = EARTH
REF_FRAME      = TEME
TIME_SYSTEM    = UTC
MEAN_ELEMENT_THEORY = SGP/SGP4

EPOCH          = 2025-10-29T18:41:14.344800
MEAN_MOTION    = 15.39741060
ECCENTRICITY   = .00106277
INCLINATION    = 82.4323
RA_OF_ASC_NODE = 51.5971
ARG_OF_PERICENTER = 266.8119
MEAN_ANOMALY   = 93.1911

EPHEMERIS_TYPE = 0
CLASSIFICATION_TYPE = U
NORAD_CAT_ID   = 33504
ELEMENT_SET_NO = 999
REV_AT_EPOCH   = 92557
BSTAR          = .4170344E-3
MEAN_MOTION_DOT = .16572E-3
MEAN_MOTION_DDOT = 0

CCSDS_OMM_VERS = 2.0
CREATION_DATE  = 
ORIGINATOR     = 

OBJECT_NAME    = CZ-2C R/B
OBJECT_ID      = 2011-030B
CENTER_NAME    = EARTH
REF_FRAME      = TEME
TIME_SYSTEM    = UTC
MEAN_ELEMENT_THEORY = SGP/SGP4

EPOCH          = 2025-10-29T20:57:38.937312
MEAN_MOTION    = 14.80663601
ECCENTRICITY   = .0054538
INCLINATION    = 97.8338
RA_OF_ASC_NODE = 257.9767
ARG_OF_PERICENTER = 56.9856
MEAN_ANOMALY   = 0.8337

EPHEMERIS_TYPE = 0
CLASSIFICATION_TYPE = U
NORAD_CAT_ID   = 37731
ELEMENT_SET_NO = 999
REV_AT_EPOCH   = 77073
BSTAR          = .29335309E-3
MEAN_MOTION_DOT = .2258E-4
MEAN_MOTION_DDOT = 0

